ISS (ZARYA)             
1 25544U 98067A   25365.43607933  .00015147  00000+0  28262-3 0  9996
2 25544  51.6331  49.8878 0007506 323.8065  36.2414 15.48972750545754
CSS (TIANHE)            
1 48274U 21035A   25365.41354567  .00026020  00000+0  31570-3 0  9990
2 48274  41.4669 263.2749 0009813 189.4521 170.6134 15.59959708266948
ISS (NAUKA)             
1 49044U 21066A   25365.24252991  .00014700  00000+0  27461-3 0  9995
2 49044  51.6330  50.8452 0007496 322.9593  37.0877 15.48966283230441
FREGAT DEB              
1 49271U 11037PF  25364.62493341  .00020849  00000+0  45228-1 0  9991
2 49271  51.6444 146.5431 0871329 262.9629  87.1471 12.34718687204145
CSS (WENTIAN)           
1 53239U 22085A   25365.09344151  .00027123  00000+0  32908-3 0  9996
2 53239  41.4668 265.2206 0009747 186.8831 173.1875 15.59942629173845
CSS (MENGTIAN)          
1 54216U 22143A   25365.09344151  .00027123  00000+0  32908-3 0  9997
2 54216  41.4668 265.2206 0009747 186.8831 173.1875 15.59942629158642
SHENZHOU-20 (SZ-20)     
1 63632U 25082A   25365.09344151  .00027123  00000+0  32908-3 0  9994
2 63632  41.4668 265.2206 0009747 186.8831 173.1875 15.59942629255305
PROGRESS-MS 31          
1 64751U 25146A   25365.24252991  .00014700  00000+0  27461-3 0  9990
2 64751  51.6330  50.8452 0007496 322.9593  37.0877 15.48966283  6758
TIANZHOU-9              
1 64786U 25149A   25365.09344151  .00027123  00000+0  32908-3 0  9999
2 64786  41.4668 265.2206 0009747 186.8831 173.1875 15.59942629255306
CREW DRAGON 11          
1 65077U 25166A   25365.24252991  .00014700  00000+0  27461-3 0  9994
2 65077  51.6330  50.8452 0007496 322.9593  37.0877 15.48966283  2149
DRAGON CRS-33           
1 65304U 25186A   25365.24252991  .00014700  00000+0  27461-3 0  9999
2 65304  51.6330  50.8452 0007496 322.9593  37.0877 15.48966283   117
PROGRESS-MS 32          
1 65586U 25204A   25365.24252991  .00014700  00000+0  27461-3 0  9992
2 65586  51.6330  50.8452 0007496 322.9593  37.0877 15.48966283   276
