CCSDS_OMM_VERS = 2.0
CREATION_DATE  = 
ORIGINATOR     = 

OBJECT_NAME    = ISS (ZARYA)
OBJECT_ID      = 1998-067A
CENTER_NAME    = EARTH
REF_FRAME      = TEME
TIME_SYSTEM    = UTC
MEAN_ELEMENT_THEORY = SGP/SGP4

EPOCH          = 2025-12-31T10:27:57.254112
MEAN_MOTION    = 15.48972750
ECCENTRICITY   = .0007506
INCLINATION    = 51.6331
RA_OF_ASC_NODE = 49.8878
ARG_OF_PERICENTER = 323.8065
MEAN_ANOMALY   = 36.2414

EPHEMERIS_TYPE = 0
CLASSIFICATION_TYPE = U
NORAD_CAT_ID   = 25544
ELEMENT_SET_NO = 999
REV_AT_EPOCH   = 54575
BSTAR          = .28262E-3
MEAN_MOTION_DOT = .15147E-3
MEAN_MOTION_DDOT = 0

CCSDS_OMM_VERS = 2.0
CREATION_DATE  = 
ORIGINATOR     = 

OBJECT_NAME    = CSS (TIANHE)
OBJECT_ID      = 2021-035A
CENTER_NAME    = EARTH
REF_FRAME      = TEME
TIME_SYSTEM    = UTC
MEAN_ELEMENT_THEORY = SGP/SGP4

EPOCH          = 2025-12-31T09:55:30.345888
MEAN_MOTION    = 15.59959708
ECCENTRICITY   = .0009813
INCLINATION    = 41.4669
RA_OF_ASC_NODE = 263.2749
ARG_OF_PERICENTER = 189.4521
MEAN_ANOMALY   = 170.6134

EPHEMERIS_TYPE = 0
CLASSIFICATION_TYPE = U
NORAD_CAT_ID   = 48274
ELEMENT_SET_NO = 999
REV_AT_EPOCH   = 26694
BSTAR          = .3157E-3
MEAN_MOTION_DOT = .2602E-3
MEAN_MOTION_DDOT = 0

CCSDS_OMM_VERS = 2.0
CREATION_DATE  = 
ORIGINATOR     = 

OBJECT_NAME    = ISS (NAUKA)
OBJECT_ID      = 2021-066A
CENTER_NAME    = EARTH
REF_FRAME      = TEME
TIME_SYSTEM    = UTC
MEAN_ELEMENT_THEORY = SGP/SGP4

EPOCH          = 2025-12-31T05:49:14.584224
MEAN_MOTION    = 15.48966283
ECCENTRICITY   = .00074963
INCLINATION    = 51.6330
RA_OF_ASC_NODE = 50.8452
ARG_OF_PERICENTER = 322.9593
MEAN_ANOMALY   = 37.0877

EPHEMERIS_TYPE = 0
CLASSIFICATION_TYPE = U
NORAD_CAT_ID   = 49044
ELEMENT_SET_NO = 999
REV_AT_EPOCH   = 23044
BSTAR          = .274611E-3
MEAN_MOTION_DOT = .147E-3
MEAN_MOTION_DDOT = 0

CCSDS_OMM_VERS = 2.0
CREATION_DATE  = 
ORIGINATOR     = 

OBJECT_NAME    = FREGAT DEB
OBJECT_ID      = 2011-037PF
CENTER_NAME    = EARTH
REF_FRAME      = TEME
TIME_SYSTEM    = UTC
MEAN_ELEMENT_THEORY = SGP/SGP4

EPOCH          = 2025-12-30T14:59:54.246624
MEAN_MOTION    = 12.34718687
ECCENTRICITY   = .0871329
INCLINATION    = 51.6444
RA_OF_ASC_NODE = 146.5431
ARG_OF_PERICENTER = 262.9629
MEAN_ANOMALY   = 87.1471

EPHEMERIS_TYPE = 0
CLASSIFICATION_TYPE = U
NORAD_CAT_ID   = 49271
ELEMENT_SET_NO = 999
REV_AT_EPOCH   = 20414
BSTAR          = .45228E-1
MEAN_MOTION_DOT = .20849E-3
MEAN_MOTION_DDOT = 0

CCSDS_OMM_VERS = 2.0
CREATION_DATE  = 
ORIGINATOR     = 

OBJECT_NAME    = CSS (WENTIAN)
OBJECT_ID      = 2022-085A
CENTER_NAME    = EARTH
REF_FRAME      = TEME
TIME_SYSTEM    = UTC
MEAN_ELEMENT_THEORY = SGP/SGP4

EPOCH          = 2025-12-31T02:14:33.346464
MEAN_MOTION    = 15.59942629
ECCENTRICITY   = .00097473
INCLINATION    = 41.4668
RA_OF_ASC_NODE = 265.2206
ARG_OF_PERICENTER = 186.8831
MEAN_ANOMALY   = 173.1875

EPHEMERIS_TYPE = 0
CLASSIFICATION_TYPE = U
NORAD_CAT_ID   = 53239
ELEMENT_SET_NO = 999
REV_AT_EPOCH   = 17384
BSTAR          = .32907806E-3
MEAN_MOTION_DOT = .27123E-3
MEAN_MOTION_DDOT = 0

CCSDS_OMM_VERS = 2.0
CREATION_DATE  = 
ORIGINATOR     = 

OBJECT_NAME    = CSS (MENGTIAN)
OBJECT_ID      = 2022-143A
CENTER_NAME    = EARTH
REF_FRAME      = TEME
TIME_SYSTEM    = UTC
MEAN_ELEMENT_THEORY = SGP/SGP4

EPOCH          = 2025-12-31T02:14:33.346464
MEAN_MOTION    = 15.59942629
ECCENTRICITY   = .00097473
INCLINATION    = 41.4668
RA_OF_ASC_NODE = 265.2206
ARG_OF_PERICENTER = 186.8831
MEAN_ANOMALY   = 173.1875

EPHEMERIS_TYPE = 0
CLASSIFICATION_TYPE = U
NORAD_CAT_ID   = 54216
ELEMENT_SET_NO = 999
REV_AT_EPOCH   = 15864
BSTAR          = .32907806E-3
MEAN_MOTION_DOT = .27123E-3
MEAN_MOTION_DDOT = 0

CCSDS_OMM_VERS = 2.0
CREATION_DATE  = 
ORIGINATOR     = 

OBJECT_NAME    = SHENZHOU-20 (SZ-20)
OBJECT_ID      = 2025-082A
CENTER_NAME    = EARTH
REF_FRAME      = TEME
TIME_SYSTEM    = UTC
MEAN_ELEMENT_THEORY = SGP/SGP4

EPOCH          = 2025-12-31T02:14:33.346464
MEAN_MOTION    = 15.59942629
ECCENTRICITY   = .00097473
INCLINATION    = 41.4668
RA_OF_ASC_NODE = 265.2206
ARG_OF_PERICENTER = 186.8831
MEAN_ANOMALY   = 173.1875

EPHEMERIS_TYPE = 0
CLASSIFICATION_TYPE = U
NORAD_CAT_ID   = 63632
ELEMENT_SET_NO = 999
REV_AT_EPOCH   = 25530
BSTAR          = .32907806E-3
MEAN_MOTION_DOT = .27123E-3
MEAN_MOTION_DDOT = 0

CCSDS_OMM_VERS = 2.0
CREATION_DATE  = 
ORIGINATOR     = 

OBJECT_NAME    = PROGRESS-MS 31
OBJECT_ID      = 2025-146A
CENTER_NAME    = EARTH
REF_FRAME      = TEME
TIME_SYSTEM    = UTC
MEAN_ELEMENT_THEORY = SGP/SGP4

EPOCH          = 2025-12-31T05:49:14.584224
MEAN_MOTION    = 15.48966283
ECCENTRICITY   = .00074963
INCLINATION    = 51.6330
RA_OF_ASC_NODE = 50.8452
ARG_OF_PERICENTER = 322.9593
MEAN_ANOMALY   = 37.0877

EPHEMERIS_TYPE = 0
CLASSIFICATION_TYPE = U
NORAD_CAT_ID   = 64751
ELEMENT_SET_NO = 999
REV_AT_EPOCH   = 675
BSTAR          = .274611E-3
MEAN_MOTION_DOT = .147E-3
MEAN_MOTION_DDOT = 0

CCSDS_OMM_VERS = 2.0
CREATION_DATE  = 
ORIGINATOR     = 

OBJECT_NAME    = TIANZHOU-9
OBJECT_ID      = 2025-149A
CENTER_NAME    = EARTH
REF_FRAME      = TEME
TIME_SYSTEM    = UTC
MEAN_ELEMENT_THEORY = SGP/SGP4

EPOCH          = 2025-12-31T02:14:33.346464
MEAN_MOTION    = 15.59942629
ECCENTRICITY   = .00097473
INCLINATION    = 41.4668
RA_OF_ASC_NODE = 265.2206
ARG_OF_PERICENTER = 186.8831
MEAN_ANOMALY   = 173.1875

EPHEMERIS_TYPE = 0
CLASSIFICATION_TYPE = U
NORAD_CAT_ID   = 64786
ELEMENT_SET_NO = 999
REV_AT_EPOCH   = 25530
BSTAR          = .32907806E-3
MEAN_MOTION_DOT = .27123E-3
MEAN_MOTION_DDOT = 0

CCSDS_OMM_VERS = 2.0
CREATION_DATE  = 
ORIGINATOR     = 

OBJECT_NAME    = CREW DRAGON 11
OBJECT_ID      = 2025-166A
CENTER_NAME    = EARTH
REF_FRAME      = TEME
TIME_SYSTEM    = UTC
MEAN_ELEMENT_THEORY = SGP/SGP4

EPOCH          = 2025-12-31T05:49:14.584224
MEAN_MOTION    = 15.48966283
ECCENTRICITY   = .00074963
INCLINATION    = 51.6330
RA_OF_ASC_NODE = 50.8452
ARG_OF_PERICENTER = 322.9593
MEAN_ANOMALY   = 37.0877

EPHEMERIS_TYPE = 0
CLASSIFICATION_TYPE = U
NORAD_CAT_ID   = 65077
ELEMENT_SET_NO = 999
REV_AT_EPOCH   = 214
BSTAR          = .274611E-3
MEAN_MOTION_DOT = .147E-3
MEAN_MOTION_DDOT = 0

CCSDS_OMM_VERS = 2.0
CREATION_DATE  = 
ORIGINATOR     = 

OBJECT_NAME    = DRAGON CRS-33
OBJECT_ID      = 2025-186A
CENTER_NAME    = EARTH
REF_FRAME      = TEME
TIME_SYSTEM    = UTC
MEAN_ELEMENT_THEORY = SGP/SGP4

EPOCH          = 2025-12-31T05:49:14.584224
MEAN_MOTION    = 15.48966283
ECCENTRICITY   = .00074963
INCLINATION    = 51.6330
RA_OF_ASC_NODE = 50.8452
ARG_OF_PERICENTER = 322.9593
MEAN_ANOMALY   = 37.0877

EPHEMERIS_TYPE = 0
CLASSIFICATION_TYPE = U
NORAD_CAT_ID   = 65304
ELEMENT_SET_NO = 999
REV_AT_EPOCH   = 11
BSTAR          = .274611E-3
MEAN_MOTION_DOT = .147E-3
MEAN_MOTION_DDOT = 0

CCSDS_OMM_VERS = 2.0
CREATION_DATE  = 
ORIGINATOR     = 

OBJECT_NAME    = PROGRESS-MS 32
OBJECT_ID      = 2025-204A
CENTER_NAME    = EARTH
REF_FRAME      = TEME
TIME_SYSTEM    = UTC
MEAN_ELEMENT_THEORY = SGP/SGP4

EPOCH          = 2025-12-31T05:49:14.584224
MEAN_MOTION    = 15.48966283
ECCENTRICITY   = .00074963
INCLINATION    = 51.6330
RA_OF_ASC_NODE = 50.8452
ARG_OF_PERICENTER = 322.9593
MEAN_ANOMALY   = 37.0877

EPHEMERIS_TYPE = 0
CLASSIFICATION_TYPE = U
NORAD_CAT_ID   = 65586
ELEMENT_SET_NO = 999
REV_AT_EPOCH   = 27
BSTAR          = .274611E-3
MEAN_MOTION_DOT = .147E-3
MEAN_MOTION_DDOT = 0

